start=new Date('2022-11-17T00:00:00.000Z').valueOf();
sats=[{"REV_AT_EPOCH":"9542","APOAPSIS":"548.533","SEMIMAJOR_AXIS":"6925.353","EPHEMERIS_TYPE":"0","ARG_OF_PERICENTER":"54.2637","ELEMENT_SET_NO":"999","MEAN_MOTION_DOT":"0.00001787","CENTER_NAME":"EARTH","SITE":"AFETR","RA_OF_ASC_NODE":"241.1875","EPOCH":"2022-11-16T04:59:09.308832","TLE_LINE1":"1 47757U 21017AM  22320.20774663  .00001787  00000-0  13886-3 0  9997","MEAN_MOTION_DDOT":"0.0000000000000","REF_FRAME":"TEME","MEAN_MOTION":"15.06398697","PERIAPSIS":"545.902","COUNTRY_CODE":"US","OBJECT_ID":"2021-017AM","NORAD_CAT_ID":"47757","RCS_SIZE":"LARGE","MEAN_ELEMENT_THEORY":"SGP4","ECCENTRICITY":"0.00019000","TLE_LINE2":"2 47757  53.0535 241.1875 0001900  54.2637 305.8528 15.06398697 95423","LAUNCH_DATE":"2021-03-04","INCLINATION":"53.0535","GP_ID":"217971773","OBJECT_NAME":"STARLINK-2175","MEAN_ANOMALY":"305.8528","BSTAR":"0.00013886000000","FILE":"3659788","DECAY_DATE":null,"OBJECT_TYPE":"PAYLOAD","PERIOD":"95.592","CLASSIFICATION_TYPE":"U","TIME_SYSTEM":"UTC"},{"OBJECT_TYPE":"PAYLOAD","PERIOD":"95.592","DECAY_DATE":null,"CLASSIFICATION_TYPE":"U","TIME_SYSTEM":"UTC","GP_ID":"217979773","INCLINATION":"53.0533","TLE_LINE2":"2 47760  53.0533 249.8654 0001830  53.0598 307.0558 15.06397482 94708","LAUNCH_DATE":"2021-03-04","ECCENTRICITY":"0.00018300","FILE":"3660133","BSTAR":"-0.00001283600000","OBJECT_NAME":"STARLINK-2178","MEAN_ANOMALY":"307.0558","PERIAPSIS":"545.954","MEAN_MOTION":"15.06397482","MEAN_MOTION_DDOT":"0.0000000000000","TLE_LINE1":"1 47760U 21017AQ  22320.50537683 -.00000473  00000-0 -12836-4 0  9991","REF_FRAME":"TEME","MEAN_ELEMENT_THEORY":"SGP4","RCS_SIZE":"LARGE","COUNTRY_CODE":"US","OBJECT_ID":"2021-017AQ","NORAD_CAT_ID":"47760","EPHEMERIS_TYPE":"0","ARG_OF_PERICENTER":"53.0598","ELEMENT_SET_NO":"999","SEMIMAJOR_AXIS":"6925.356","REV_AT_EPOCH":"9470","APOAPSIS":"548.489","EPOCH":"2022-11-16T12:07:44.558112","RA_OF_ASC_NODE":"249.8654","MEAN_MOTION_DOT":"-0.00000473","SITE":"AFETR","CENTER_NAME":"EARTH"},{"PERIOD":"95.593","OBJECT_TYPE":"PAYLOAD","DECAY_DATE":null,"TIME_SYSTEM":"UTC","CLASSIFICATION_TYPE":"U","GP_ID":"217970277","TLE_LINE2":"2 47761  53.0540 241.8108 0001477  73.2085 286.9066 15.06389866 95410","INCLINATION":"53.0540","LAUNCH_DATE":"2021-03-04","ECCENTRICITY":"0.00014770","FILE":"3659788","BSTAR":"0.00016661000000","MEAN_ANOMALY":"286.9066","OBJECT_NAME":"STARLINK-2179","PERIAPSIS":"546.222","MEAN_MOTION":"15.06389866","REF_FRAME":"TEME","MEAN_MOTION_DDOT":"0.0000000000000","TLE_LINE1":"1 47761U 21017AR  22320.07136515  .00002200  00000-0  16661-3 0  9990","MEAN_ELEMENT_THEORY":"SGP4","RCS_SIZE":"LARGE","COUNTRY_CODE":"US","NORAD_CAT_ID":"47761","OBJECT_ID":"2021-017AR","ELEMENT_SET_NO":"999","ARG_OF_PERICENTER":"73.2085","EPHEMERIS_TYPE":"0","SEMIMAJOR_AXIS":"6925.380","APOAPSIS":"548.267","REV_AT_EPOCH":"9541","EPOCH":"2022-11-16T01:42:45.948960","RA_OF_ASC_NODE":"241.8108","SITE":"AFETR","CENTER_NAME":"EARTH","MEAN_MOTION_DOT":"0.00002200"},{"CLASSIFICATION_TYPE":"U","TIME_SYSTEM":"UTC","DECAY_DATE":null,"OBJECT_TYPE":"PAYLOAD","PERIOD":"95.592","OBJECT_NAME":"STARLINK-2180","MEAN_ANOMALY":"322.8626","BSTAR":"0.00009014400000","FILE":"3659788","ECCENTRICITY":"0.00024060","LAUNCH_DATE":"2021-03-04","TLE_LINE2":"2 47762  53.0548 254.6273 0002406  37.2530 322.8626 15.06394889 95291","INCLINATION":"53.0548","GP_ID":"217971028","NORAD_CAT_ID":"47762","COUNTRY_CODE":"US","OBJECT_ID":"2021-017AS","RCS_SIZE":"LARGE","MEAN_ELEMENT_THEORY":"SGP4","MEAN_MOTION_DDOT":"0.0000000000000","TLE_LINE1":"1 47762U 21017AS  22320.56206186  .00001061  00000-0  90144-4 0  9990","REF_FRAME":"TEME","MEAN_MOTION":"15.06394889","PERIAPSIS":"545.563","MEAN_MOTION_DOT":"0.00001061","CENTER_NAME":"EARTH","SITE":"AFETR","RA_OF_ASC_NODE":"254.6273","EPOCH":"2022-11-16T13:29:22.144704","REV_AT_EPOCH":"9529","APOAPSIS":"548.895","SEMIMAJOR_AXIS":"6925.364","EPHEMERIS_TYPE":"0","ARG_OF_PERICENTER":"37.2530","ELEMENT_SET_NO":"999"},{"DECAY_DATE":null,"PERIOD":"95.592","OBJECT_TYPE":"PAYLOAD","TIME_SYSTEM":"UTC","CLASSIFICATION_TYPE":"U","ECCENTRICITY":"0.00018710","TLE_LINE2":"2 47763  53.0524 244.8326 0001871  50.9130 309.2025 15.06399457 95400","LAUNCH_DATE":"2021-03-04","INCLINATION":"53.0524","GP_ID":"217971273","MEAN_ANOMALY":"309.2025","OBJECT_NAME":"STARLINK-2181","BSTAR":"0.00016761000000","FILE":"3659788","REF_FRAME":"TEME","MEAN_MOTION_DDOT":"0.0000000000000","TLE_LINE1":"1 47763U 21017AT  22320.51137363  .00002216  00000-0  16761-3 0  9991","MEAN_MOTION":"15.06399457","PERIAPSIS":"545.919","COUNTRY_CODE":"US","NORAD_CAT_ID":"47763","OBJECT_ID":"2021-017AT","RCS_SIZE":"LARGE","MEAN_ELEMENT_THEORY":"SGP4","APOAPSIS":"548.511","REV_AT_EPOCH":"9540","SEMIMAJOR_AXIS":"6925.350","ARG_OF_PERICENTER":"50.9130","ELEMENT_SET_NO":"999","EPHEMERIS_TYPE":"0","CENTER_NAME":"EARTH","SITE":"AFETR","MEAN_MOTION_DOT":"0.00002216","RA_OF_ASC_NODE":"244.8326","EPOCH":"2022-11-16T12:16:22.681632"},{"REV_AT_EPOCH":"9532","APOAPSIS":"548.498","EPHEMERIS_TYPE":"0","ELEMENT_SET_NO":"999","ARG_OF_PERICENTER":"54.5506","SEMIMAJOR_AXIS":"6925.374","RA_OF_ASC_NODE":"254.6745","MEAN_MOTION_DOT":"0.00001117","CENTER_NAME":"EARTH","SITE":"AFETR","EPOCH":"2022-11-16T13:08:07.981440","MEAN_MOTION":"15.06391577","MEAN_MOTION_DDOT":"0.0000000000000","TLE_LINE1":"1 47764U 21017AU  22320.54731460  .00001117  00000-0  93875-4 0  9994","REF_FRAME":"TEME","PERIAPSIS":"545.981","COUNTRY_CODE":"US","NORAD_CAT_ID":"47764","OBJECT_ID":"2021-017AU","MEAN_ELEMENT_THEORY":"SGP4","RCS_SIZE":"LARGE","ECCENTRICITY":"0.00018170","GP_ID":"217970528","INCLINATION":"53.0552","TLE_LINE2":"2 47764  53.0552 254.6745 0001817  54.5506 305.5652 15.06391577 95324","LAUNCH_DATE":"2021-03-04","OBJECT_NAME":"STARLINK-2182","MEAN_ANOMALY":"305.5652","FILE":"3659788","BSTAR":"0.00009387500000","DECAY_DATE":null,"OBJECT_TYPE":"PAYLOAD","PERIOD":"95.593","CLASSIFICATION_TYPE":"U","TIME_SYSTEM":"UTC"},{"EPOCH":"2022-11-16T18:19:54.583680","RA_OF_ASC_NODE":"253.6939","MEAN_MOTION_DOT":"0.00001520","SITE":"AFETR","CENTER_NAME":"EARTH","EPHEMERIS_TYPE":"0","ELEMENT_SET_NO":"999","ARG_OF_PERICENTER":"47.1020","SEMIMAJOR_AXIS":"6925.334","REV_AT_EPOCH":"9529","APOAPSIS":"548.582","MEAN_ELEMENT_THEORY":"SGP4","RCS_SIZE":"LARGE","COUNTRY_CODE":"US","NORAD_CAT_ID":"47766","OBJECT_ID":"2021-017AW","PERIAPSIS":"545.816","MEAN_MOTION":"15.06404694","MEAN_MOTION_DDOT":"0.0000000000000","TLE_LINE1":"1 47766U 21017AW  22320.76382620  .00001520  00000-0  12092-3 0  9999","REF_FRAME":"TEME","FILE":"3660705","BSTAR":"0.00012092000000","OBJECT_NAME":"STARLINK-2184","MEAN_ANOMALY":"313.0136","GP_ID":"218015015","INCLINATION":"53.0544","TLE_LINE2":"2 47766  53.0544 253.6939 0001997  47.1020 313.0136 15.06404694 95291","LAUNCH_DATE":"2021-03-04","ECCENTRICITY":"0.00019970","CLASSIFICATION_TYPE":"U","TIME_SYSTEM":"UTC","OBJECT_TYPE":"PAYLOAD","PERIOD":"95.592","DECAY_DATE":null},{"PERIAPSIS":"545.959","MEAN_MOTION":"15.06393783","MEAN_MOTION_DDOT":"0.0000000000000","TLE_LINE1":"1 47767U 21017AX  22320.19299883  .00001424  00000-0  11453-3 0  9998","REF_FRAME":"TEME","MEAN_ELEMENT_THEORY":"SGP4","RCS_SIZE":"LARGE","OBJECT_ID":"2021-017AX","COUNTRY_CODE":"US","NORAD_CAT_ID":"47767","EPHEMERIS_TYPE":"0","ARG_OF_PERICENTER":"54.9865","ELEMENT_SET_NO":"999","SEMIMAJOR_AXIS":"6925.368","REV_AT_EPOCH":"9548","APOAPSIS":"548.506","EPOCH":"2022-11-16T04:37:55.098912","RA_OF_ASC_NODE":"241.2680","MEAN_MOTION_DOT":"0.00001424","SITE":"AFETR","CENTER_NAME":"EARTH","OBJECT_TYPE":"PAYLOAD","PERIOD":"95.593","DECAY_DATE":null,"CLASSIFICATION_TYPE":"U","TIME_SYSTEM":"UTC","GP_ID":"217971529","INCLINATION":"53.0558","TLE_LINE2":"2 47767  53.0558 241.2680 0001839  54.9865 305.1297 15.06393783 95488","LAUNCH_DATE":"2021-03-04","ECCENTRICITY":"0.00018390","FILE":"3659788","BSTAR":"0.00011453000000","OBJECT_NAME":"STARLINK-2185","MEAN_ANOMALY":"305.1297"},{"EPOCH":"2022-11-16T18:21:21.442464","CENTER_NAME":"EARTH","SITE":"AFETR","MEAN_MOTION_DOT":"0.00001455","RA_OF_ASC_NODE":"254.0970","SEMIMAJOR_AXIS":"6925.353","ARG_OF_PERICENTER":"51.0091","ELEMENT_SET_NO":"999","EPHEMERIS_TYPE":"0","APOAPSIS":"548.693","REV_AT_EPOCH":"9532","RCS_SIZE":"LARGE","MEAN_ELEMENT_THEORY":"SGP4","COUNTRY_CODE":"US","NORAD_CAT_ID":"47768","OBJECT_ID":"2021-017AY","PERIAPSIS":"545.744","REF_FRAME":"TEME","TLE_LINE1":"1 47768U 21017AY  22320.76483151  .00001455  00000-0  11657-3 0  9995","MEAN_MOTION_DDOT":"0.0000000000000","MEAN_MOTION":"15.06398415","BSTAR":"0.00011657000000","FILE":"3660705","MEAN_ANOMALY":"309.1087","OBJECT_NAME":"STARLINK-2189","TLE_LINE2":"2 47768  53.0532 254.0970 0002129  51.0091 309.1087 15.06398415 95328","LAUNCH_DATE":"2021-03-04","INCLINATION":"53.0532","GP_ID":"218014517","ECCENTRICITY":"0.00021290","TIME_SYSTEM":"UTC","CLASSIFICATION_TYPE":"U","PERIOD":"95.592","OBJECT_TYPE":"PAYLOAD","DECAY_DATE":null},{"CLASSIFICATION_TYPE":"U","TIME_SYSTEM":"UTC","DECAY_DATE":null,"OBJECT_TYPE":"PAYLOAD","PERIOD":"95.592","OBJECT_NAME":"STARLINK-2192","MEAN_ANOMALY":"306.6189","FILE":"3659788","BSTAR":"-0.00004143000000","ECCENTRICITY":"0.00017500","GP_ID":"217970028","INCLINATION":"53.0524","TLE_LINE2":"2 47769  53.0524 220.1533 0001750  53.4961 306.6189 15.06395365 95797","LAUNCH_DATE":"2021-03-04","NORAD_CAT_ID":"47769","COUNTRY_CODE":"US","OBJECT_ID":"2021-017AZ","MEAN_ELEMENT_THEORY":"SGP4","RCS_SIZE":"LARGE","MEAN_MOTION":"15.06395365","MEAN_MOTION_DDOT":"0.0000000000000","TLE_LINE1":"1 47769U 21017AZ  22320.44180050 -.00000899  00000-0 -41430-4 0  9999","REF_FRAME":"TEME","PERIAPSIS":"546.016","RA_OF_ASC_NODE":"220.1533","MEAN_MOTION_DOT":"-0.00000899","CENTER_NAME":"EARTH","SITE":"AFETR","EPOCH":"2022-11-16T10:36:11.563200","REV_AT_EPOCH":"9579","APOAPSIS":"548.440","EPHEMERIS_TYPE":"0","ARG_OF_PERICENTER":"53.4961","ELEMENT_SET_NO":"999","SEMIMAJOR_AXIS":"6925.363"}];
